STARLINK-35429          
1 66590U 25270C   25362.97594595  .00103952  00000+0  24600-2 0  9996
2 66590  43.0000  98.7785 0000720 279.2714  80.8061 15.40724451  6967
STARLINK-36058          
1 66591U 25270D   25363.28440168  .00105389  00000+0  24923-2 0  9992
2 66591  42.9984  96.7906 0001234 281.5811  78.4907 15.40738165  6908
STARLINK-36066          
1 66592U 25270E   25362.67644784  .00060884  00000+0  14468-2 0  9998
2 66592  43.0006 100.8355 0001225 306.9259  53.1485 15.40832160  6708
STARLINK-36031          
1 66593U 25270F   25363.30904295  .00073771  00000+0  17519-2 0  9995
2 66593  42.9968  96.9816 0000437  26.7540 333.3339 15.40775243  6906
STARLINK-36032          
1 66594U 25270G   25362.64283093  .00054693  00000+0  13058-2 0  9994
2 66594  42.9992 100.5756 0001425 287.3801  72.6899 15.40732834  6613
STARLINK-35711          
1 66595U 25270H   25362.30301214  .00070820  00000+0  16836-2 0  9991
2 66595  42.9965 102.3208 0000883 148.1977 211.8932 15.40759732  6869
STARLINK-35811          
1 66596U 25270J   25362.55126654  .00067774  00000+0  16157-2 0  9992
2 66596  43.0016 101.6176 0001868 275.9356  84.1287 15.40692367  6896
STARLINK-35820          
1 66597U 25270K   25363.32024808  .00009006  00000+0  22257-3 0  9990
2 66597  43.0024  97.0664 0002761 282.6698  77.3850 15.40704756  7014
STARLINK-35981          
1 66598U 25270L   25362.98042967  .00056444  00000+0  13474-2 0  9996
2 66598  42.9986  98.8118 0000444  39.6639 320.4250 15.40723944  6705
STARLINK-35930          
1 66599U 25270M   25363.27992038  .00068982  00000+0  16405-2 0  9990
2 66599  42.9969  96.7546 0001038 296.9079  63.1671 15.40758753  6901
STARLINK-35980          
1 66600U 25270N   25363.29560426  .00060490  00000+0  14430-2 0  9999
2 66600  43.0026  96.8756 0002026 263.6465  96.4160 15.40716995  6805
STARLINK-35978          
1 66601U 25270P   25363.31352546  .00041287  00000+0  98943-3 0  9990
2 66601  43.0002  97.0158 0001746 306.0063  54.0631 15.40725648  6744
