CCSDS_OMM_VERS = 2.0
CREATION_DATE  = 
ORIGINATOR     = 

OBJECT_NAME    = STARLINK-35429
OBJECT_ID      = 2025-270C
CENTER_NAME    = EARTH
REF_FRAME      = TEME
TIME_SYSTEM    = UTC
MEAN_ELEMENT_THEORY = SGP/SGP4

EPOCH          = 2025-12-28T23:25:21.730080
MEAN_MOTION    = 15.40724451
ECCENTRICITY   = .00007204
INCLINATION    = 43.0000
RA_OF_ASC_NODE = 98.7785
ARG_OF_PERICENTER = 279.2714
MEAN_ANOMALY   = 80.8061

EPHEMERIS_TYPE = 0
CLASSIFICATION_TYPE = U
NORAD_CAT_ID   = 66590
ELEMENT_SET_NO = 999
REV_AT_EPOCH   = 696
BSTAR          = .2460011E-2
MEAN_MOTION_DOT = .103952E-2
MEAN_MOTION_DDOT = 0

CCSDS_OMM_VERS = 2.0
CREATION_DATE  = 
ORIGINATOR     = 

OBJECT_NAME    = STARLINK-36058
OBJECT_ID      = 2025-270D
CENTER_NAME    = EARTH
REF_FRAME      = TEME
TIME_SYSTEM    = UTC
MEAN_ELEMENT_THEORY = SGP/SGP4

EPOCH          = 2025-12-29T06:49:32.305152
MEAN_MOTION    = 15.40738165
ECCENTRICITY   = .00012348
INCLINATION    = 42.9984
RA_OF_ASC_NODE = 96.7906
ARG_OF_PERICENTER = 281.5811
MEAN_ANOMALY   = 78.4907

EPHEMERIS_TYPE = 0
CLASSIFICATION_TYPE = U
NORAD_CAT_ID   = 66591
ELEMENT_SET_NO = 999
REV_AT_EPOCH   = 690
BSTAR          = .24923039E-2
MEAN_MOTION_DOT = .105389E-2
MEAN_MOTION_DDOT = 0

CCSDS_OMM_VERS = 2.0
CREATION_DATE  = 
ORIGINATOR     = 

OBJECT_NAME    = STARLINK-36066
OBJECT_ID      = 2025-270E
CENTER_NAME    = EARTH
REF_FRAME      = TEME
TIME_SYSTEM    = UTC
MEAN_ELEMENT_THEORY = SGP/SGP4

EPOCH          = 2025-12-28T16:14:05.093376
MEAN_MOTION    = 15.40832160
ECCENTRICITY   = .00012251
INCLINATION    = 43.0006
RA_OF_ASC_NODE = 100.8355
ARG_OF_PERICENTER = 306.9259
MEAN_ANOMALY   = 53.1485

EPHEMERIS_TYPE = 0
CLASSIFICATION_TYPE = U
NORAD_CAT_ID   = 66592
ELEMENT_SET_NO = 999
REV_AT_EPOCH   = 670
BSTAR          = .14468046E-2
MEAN_MOTION_DOT = .60884E-3
MEAN_MOTION_DDOT = 0

CCSDS_OMM_VERS = 2.0
CREATION_DATE  = 
ORIGINATOR     = 

OBJECT_NAME    = STARLINK-36031
OBJECT_ID      = 2025-270F
CENTER_NAME    = EARTH
REF_FRAME      = TEME
TIME_SYSTEM    = UTC
MEAN_ELEMENT_THEORY = SGP/SGP4

EPOCH          = 2025-12-29T07:25:01.310880
MEAN_MOTION    = 15.40775243
ECCENTRICITY   = .00004376
INCLINATION    = 42.9968
RA_OF_ASC_NODE = 96.9816
ARG_OF_PERICENTER = 26.7540
MEAN_ANOMALY   = 333.3339

EPHEMERIS_TYPE = 0
CLASSIFICATION_TYPE = U
NORAD_CAT_ID   = 66593
ELEMENT_SET_NO = 999
REV_AT_EPOCH   = 690
BSTAR          = .17518615E-2
MEAN_MOTION_DOT = .73771E-3
MEAN_MOTION_DDOT = 0

CCSDS_OMM_VERS = 2.0
CREATION_DATE  = 
ORIGINATOR     = 

OBJECT_NAME    = STARLINK-36032
OBJECT_ID      = 2025-270G
CENTER_NAME    = EARTH
REF_FRAME      = TEME
TIME_SYSTEM    = UTC
MEAN_ELEMENT_THEORY = SGP/SGP4

EPOCH          = 2025-12-28T15:25:40.592352
MEAN_MOTION    = 15.40732834
ECCENTRICITY   = .0001425
INCLINATION    = 42.9992
RA_OF_ASC_NODE = 100.5756
ARG_OF_PERICENTER = 287.3801
MEAN_ANOMALY   = 72.6899

EPHEMERIS_TYPE = 0
CLASSIFICATION_TYPE = U
NORAD_CAT_ID   = 66594
ELEMENT_SET_NO = 999
REV_AT_EPOCH   = 661
BSTAR          = .13058E-2
MEAN_MOTION_DOT = .54693E-3
MEAN_MOTION_DDOT = 0

CCSDS_OMM_VERS = 2.0
CREATION_DATE  = 
ORIGINATOR     = 

OBJECT_NAME    = STARLINK-35711
OBJECT_ID      = 2025-270H
CENTER_NAME    = EARTH
REF_FRAME      = TEME
TIME_SYSTEM    = UTC
MEAN_ELEMENT_THEORY = SGP/SGP4

EPOCH          = 2025-12-28T07:16:20.248896
MEAN_MOTION    = 15.40759732
ECCENTRICITY   = .0000883
INCLINATION    = 42.9965
RA_OF_ASC_NODE = 102.3208
ARG_OF_PERICENTER = 148.1977
MEAN_ANOMALY   = 211.8932

EPHEMERIS_TYPE = 0
CLASSIFICATION_TYPE = U
NORAD_CAT_ID   = 66595
ELEMENT_SET_NO = 999
REV_AT_EPOCH   = 686
BSTAR          = .16836E-2
MEAN_MOTION_DOT = .7082E-3
MEAN_MOTION_DDOT = 0

CCSDS_OMM_VERS = 2.0
CREATION_DATE  = 
ORIGINATOR     = 

OBJECT_NAME    = STARLINK-35811
OBJECT_ID      = 2025-270J
CENTER_NAME    = EARTH
REF_FRAME      = TEME
TIME_SYSTEM    = UTC
MEAN_ELEMENT_THEORY = SGP/SGP4

EPOCH          = 2025-12-28T13:13:49.429056
MEAN_MOTION    = 15.40692367
ECCENTRICITY   = .0001868
INCLINATION    = 43.0016
RA_OF_ASC_NODE = 101.6176
ARG_OF_PERICENTER = 275.9356
MEAN_ANOMALY   = 84.1287

EPHEMERIS_TYPE = 0
CLASSIFICATION_TYPE = U
NORAD_CAT_ID   = 66596
ELEMENT_SET_NO = 999
REV_AT_EPOCH   = 689
BSTAR          = .16157E-2
MEAN_MOTION_DOT = .67774E-3
MEAN_MOTION_DDOT = 0

CCSDS_OMM_VERS = 2.0
CREATION_DATE  = 
ORIGINATOR     = 

OBJECT_NAME    = STARLINK-35820
OBJECT_ID      = 2025-270K
CENTER_NAME    = EARTH
REF_FRAME      = TEME
TIME_SYSTEM    = UTC
MEAN_ELEMENT_THEORY = SGP/SGP4

EPOCH          = 2025-12-29T07:41:09.434112
MEAN_MOTION    = 15.40704756
ECCENTRICITY   = .00027618
INCLINATION    = 43.0024
RA_OF_ASC_NODE = 97.0664
ARG_OF_PERICENTER = 282.6698
MEAN_ANOMALY   = 77.3850

EPHEMERIS_TYPE = 0
CLASSIFICATION_TYPE = U
NORAD_CAT_ID   = 66597
ELEMENT_SET_NO = 999
REV_AT_EPOCH   = 701
BSTAR          = .22256921E-3
MEAN_MOTION_DOT = .9006E-4
MEAN_MOTION_DDOT = 0

CCSDS_OMM_VERS = 2.0
CREATION_DATE  = 
ORIGINATOR     = 

OBJECT_NAME    = STARLINK-35981
OBJECT_ID      = 2025-270L
CENTER_NAME    = EARTH
REF_FRAME      = TEME
TIME_SYSTEM    = UTC
MEAN_ELEMENT_THEORY = SGP/SGP4

EPOCH          = 2025-12-28T23:31:49.123488
MEAN_MOTION    = 15.40723944
ECCENTRICITY   = .00004446
INCLINATION    = 42.9986
RA_OF_ASC_NODE = 98.8118
ARG_OF_PERICENTER = 39.6639
MEAN_ANOMALY   = 320.4250

EPHEMERIS_TYPE = 0
CLASSIFICATION_TYPE = U
NORAD_CAT_ID   = 66598
ELEMENT_SET_NO = 999
REV_AT_EPOCH   = 670
BSTAR          = .13474246E-2
MEAN_MOTION_DOT = .56444E-3
MEAN_MOTION_DDOT = 0

CCSDS_OMM_VERS = 2.0
CREATION_DATE  = 
ORIGINATOR     = 

OBJECT_NAME    = STARLINK-35930
OBJECT_ID      = 2025-270M
CENTER_NAME    = EARTH
REF_FRAME      = TEME
TIME_SYSTEM    = UTC
MEAN_ELEMENT_THEORY = SGP/SGP4

EPOCH          = 2025-12-29T06:43:05.120832
MEAN_MOTION    = 15.40758753
ECCENTRICITY   = .00010383
INCLINATION    = 42.9969
RA_OF_ASC_NODE = 96.7546
ARG_OF_PERICENTER = 296.9079
MEAN_ANOMALY   = 63.1671

EPHEMERIS_TYPE = 0
CLASSIFICATION_TYPE = U
NORAD_CAT_ID   = 66599
ELEMENT_SET_NO = 999
REV_AT_EPOCH   = 690
BSTAR          = .16405382E-2
MEAN_MOTION_DOT = .68982E-3
MEAN_MOTION_DDOT = 0

CCSDS_OMM_VERS = 2.0
CREATION_DATE  = 
ORIGINATOR     = 

OBJECT_NAME    = STARLINK-35980
OBJECT_ID      = 2025-270N
CENTER_NAME    = EARTH
REF_FRAME      = TEME
TIME_SYSTEM    = UTC
MEAN_ELEMENT_THEORY = SGP/SGP4

EPOCH          = 2025-12-29T07:05:40.208064
MEAN_MOTION    = 15.40716995
ECCENTRICITY   = .00020262
INCLINATION    = 43.0026
RA_OF_ASC_NODE = 96.8756
ARG_OF_PERICENTER = 263.6465
MEAN_ANOMALY   = 96.4160

EPHEMERIS_TYPE = 0
CLASSIFICATION_TYPE = U
NORAD_CAT_ID   = 66600
ELEMENT_SET_NO = 999
REV_AT_EPOCH   = 680
BSTAR          = .14430201E-2
MEAN_MOTION_DOT = .6049E-3
MEAN_MOTION_DDOT = 0

CCSDS_OMM_VERS = 2.0
CREATION_DATE  = 
ORIGINATOR     = 

OBJECT_NAME    = STARLINK-35978
OBJECT_ID      = 2025-270P
CENTER_NAME    = EARTH
REF_FRAME      = TEME
TIME_SYSTEM    = UTC
MEAN_ELEMENT_THEORY = SGP/SGP4

EPOCH          = 2025-12-29T07:31:28.599744
MEAN_MOTION    = 15.40725648
ECCENTRICITY   = .00017463
INCLINATION    = 43.0002
RA_OF_ASC_NODE = 97.0158
ARG_OF_PERICENTER = 306.0063
MEAN_ANOMALY   = 54.0631

EPHEMERIS_TYPE = 0
CLASSIFICATION_TYPE = U
NORAD_CAT_ID   = 66601
ELEMENT_SET_NO = 999
REV_AT_EPOCH   = 674
BSTAR          = .9894304E-3
MEAN_MOTION_DOT = .41287E-3
MEAN_MOTION_DDOT = 0

